CCSDS_OMM_VERS = 2.0
CREATION_DATE  = 
ORIGINATOR     = 

OBJECT_NAME    = SL-16 R/B
OBJECT_ID      = 1998-043G
CENTER_NAME    = EARTH
REF_FRAME      = TEME
TIME_SYSTEM    = UTC
MEAN_ELEMENT_THEORY = SGP/SGP4

EPOCH          = 2026-02-17T17:38:24.696384
MEAN_MOTION    = 14.26044834
ECCENTRICITY   = .0010948
INCLINATION    = 98.8221
RA_OF_ASC_NODE = 1.9612
ARG_OF_PERICENTER = 73.8652
MEAN_ANOMALY   = 286.3732

EPHEMERIS_TYPE = 0
CLASSIFICATION_TYPE = U
NORAD_CAT_ID   = 25400
ELEMENT_SET_NO = 999
REV_AT_EPOCH   = 43614
BSTAR          = .42454E-4
MEAN_MOTION_DOT = .56E-6
MEAN_MOTION_DDOT = 0

CCSDS_OMM_VERS = 2.0
CREATION_DATE  = 
ORIGINATOR     = 

OBJECT_NAME    = SL-16 R/B
OBJECT_ID      = 1998-045B
CENTER_NAME    = EARTH
REF_FRAME      = TEME
TIME_SYSTEM    = UTC
MEAN_ELEMENT_THEORY = SGP/SGP4

EPOCH          = 2026-02-17T17:24:24.723360
MEAN_MOTION    = 14.16189616
ECCENTRICITY   = .0005768
INCLINATION    = 71.0091
RA_OF_ASC_NODE = 223.5570
ARG_OF_PERICENTER = 43.4635
MEAN_ANOMALY   = 316.6942

EPHEMERIS_TYPE = 0
CLASSIFICATION_TYPE = U
NORAD_CAT_ID   = 25407
ELEMENT_SET_NO = 999
REV_AT_EPOCH   = 42427
BSTAR          = .15234E-3
MEAN_MOTION_DOT = .254E-5
MEAN_MOTION_DDOT = 0

CCSDS_OMM_VERS = 2.0
CREATION_DATE  = 
ORIGINATOR     = 

OBJECT_NAME    = ISS (ZARYA)
OBJECT_ID      = 1998-067A
CENTER_NAME    = EARTH
REF_FRAME      = TEME
TIME_SYSTEM    = UTC
MEAN_ELEMENT_THEORY = SGP/SGP4

EPOCH          = 2026-02-17T19:52:32.520288
MEAN_MOTION    = 15.48671179
ECCENTRICITY   = .0010977
INCLINATION    = 51.6322
RA_OF_ASC_NODE = 170.5300
ARG_OF_PERICENTER = 108.9064
MEAN_ANOMALY   = 251.3115

EPHEMERIS_TYPE = 0
CLASSIFICATION_TYPE = U
NORAD_CAT_ID   = 25544
ELEMENT_SET_NO = 999
REV_AT_EPOCH   = 55325
BSTAR          = .1856E-3
MEAN_MOTION_DOT = .9688E-4
MEAN_MOTION_DDOT = 0

CCSDS_OMM_VERS = 2.0
CREATION_DATE  = 
ORIGINATOR     = 

OBJECT_NAME    = CZ-4B R/B
OBJECT_ID      = 1999-025C
CENTER_NAME    = EARTH
REF_FRAME      = TEME
TIME_SYSTEM    = UTC
MEAN_ELEMENT_THEORY = SGP/SGP4

EPOCH          = 2026-02-18T02:47:09.661920
MEAN_MOTION    = 14.18261343
ECCENTRICITY   = .0037782
INCLINATION    = 98.6667
RA_OF_ASC_NODE = 93.8575
ARG_OF_PERICENTER = 42.6131
MEAN_ANOMALY   = 340.6425

EPHEMERIS_TYPE = 0
CLASSIFICATION_TYPE = U
NORAD_CAT_ID   = 25732
ELEMENT_SET_NO = 999
REV_AT_EPOCH   = 38539
BSTAR          = .43425E-4
MEAN_MOTION_DOT = .47E-6
MEAN_MOTION_DDOT = 0

CCSDS_OMM_VERS = 2.0
CREATION_DATE  = 
ORIGINATOR     = 

OBJECT_NAME    = OKEAN-O
OBJECT_ID      = 1999-039A
CENTER_NAME    = EARTH
REF_FRAME      = TEME
TIME_SYSTEM    = UTC
MEAN_ELEMENT_THEORY = SGP/SGP4

EPOCH          = 2026-02-18T02:48:51.067872
MEAN_MOTION    = 14.80302276
ECCENTRICITY   = .0001759
INCLINATION    = 97.9486
RA_OF_ASC_NODE = 109.2036
ARG_OF_PERICENTER = 79.6953
MEAN_ANOMALY   = 280.4457

EPHEMERIS_TYPE = 0
CLASSIFICATION_TYPE = U
NORAD_CAT_ID   = 25860
ELEMENT_SET_NO = 999
REV_AT_EPOCH   = 43149
BSTAR          = .93712E-4
MEAN_MOTION_DOT = .662E-5
MEAN_MOTION_DDOT = 0

CCSDS_OMM_VERS = 2.0
CREATION_DATE  = 
ORIGINATOR     = 

OBJECT_NAME    = SL-16 R/B
OBJECT_ID      = 1999-039B
CENTER_NAME    = EARTH
REF_FRAME      = TEME
TIME_SYSTEM    = UTC
MEAN_ELEMENT_THEORY = SGP/SGP4

EPOCH          = 2026-02-18T02:46:28.146720
MEAN_MOTION    = 14.81702805
ECCENTRICITY   = .0013928
INCLINATION    = 98.0010
RA_OF_ASC_NODE = 108.2371
ARG_OF_PERICENTER = 325.4729
MEAN_ANOMALY   = 34.5577

EPHEMERIS_TYPE = 0
CLASSIFICATION_TYPE = U
NORAD_CAT_ID   = 25861
ELEMENT_SET_NO = 999
REV_AT_EPOCH   = 43396
BSTAR          = .75686E-4
MEAN_MOTION_DOT = .543E-5
MEAN_MOTION_DDOT = 0

CCSDS_OMM_VERS = 2.0
CREATION_DATE  = 
ORIGINATOR     = 

OBJECT_NAME    = DELTA 2 R/B
OBJECT_ID      = 1999-041E
CENTER_NAME    = EARTH
REF_FRAME      = TEME
TIME_SYSTEM    = UTC
MEAN_ELEMENT_THEORY = SGP/SGP4

EPOCH          = 2026-02-18T02:45:48.961728
MEAN_MOTION    = 14.11763678
ECCENTRICITY   = .0502222
INCLINATION    = 51.7660
RA_OF_ASC_NODE = 19.4514
ARG_OF_PERICENTER = 290.6195
MEAN_ANOMALY   = 64.1572

EPHEMERIS_TYPE = 0
CLASSIFICATION_TYPE = U
NORAD_CAT_ID   = 25876
ELEMENT_SET_NO = 999
REV_AT_EPOCH   = 36026
BSTAR          = .31831E-3
MEAN_MOTION_DOT = .1745E-4
MEAN_MOTION_DDOT = 0

CCSDS_OMM_VERS = 2.0
CREATION_DATE  = 
ORIGINATOR     = 

OBJECT_NAME    = HELIOS 1B
OBJECT_ID      = 1999-064A
CENTER_NAME    = EARTH
REF_FRAME      = TEME
TIME_SYSTEM    = UTC
MEAN_ELEMENT_THEORY = SGP/SGP4

EPOCH          = 2026-02-18T03:22:56.102304
MEAN_MOTION    = 14.87613225
ECCENTRICITY   = .0002332
INCLINATION    = 98.1719
RA_OF_ASC_NODE = 310.8079
ARG_OF_PERICENTER = 101.0693
MEAN_ANOMALY   = 259.0784

EPHEMERIS_TYPE = 0
CLASSIFICATION_TYPE = U
NORAD_CAT_ID   = 25977
ELEMENT_SET_NO = 999
REV_AT_EPOCH   = 68235
BSTAR          = .20015E-3
MEAN_MOTION_DOT = .1761E-4
MEAN_MOTION_DDOT = 0

CCSDS_OMM_VERS = 2.0
CREATION_DATE  = 
ORIGINATOR     = 

OBJECT_NAME    = TERRA
OBJECT_ID      = 1999-068A
CENTER_NAME    = EARTH
REF_FRAME      = TEME
TIME_SYSTEM    = UTC
MEAN_ELEMENT_THEORY = SGP/SGP4

EPOCH          = 2026-02-18T02:55:03.698112
MEAN_MOTION    = 14.60992596
ECCENTRICITY   = .0001309
INCLINATION    = 97.9636
RA_OF_ASC_NODE = 103.2997
ARG_OF_PERICENTER = 211.2444
MEAN_ANOMALY   = 176.3837

EPHEMERIS_TYPE = 0
CLASSIFICATION_TYPE = U
NORAD_CAT_ID   = 25994
ELEMENT_SET_NO = 999
REV_AT_EPOCH   = 39222
BSTAR          = .9572E-4
MEAN_MOTION_DOT = .425E-5
MEAN_MOTION_DDOT = 0

CCSDS_OMM_VERS = 2.0
CREATION_DATE  = 
ORIGINATOR     = 

OBJECT_NAME    = SL-16 R/B
OBJECT_ID      = 2000-006B
CENTER_NAME    = EARTH
REF_FRAME      = TEME
TIME_SYSTEM    = UTC
MEAN_ELEMENT_THEORY = SGP/SGP4

EPOCH          = 2026-02-17T15:57:21.910752
MEAN_MOTION    = 14.15818415
ECCENTRICITY   = .00179763
INCLINATION    = 71.0022
RA_OF_ASC_NODE = 139.9429
ARG_OF_PERICENTER = 218.2763
MEAN_ANOMALY   = 141.7085

EPHEMERIS_TYPE = 0
CLASSIFICATION_TYPE = U
NORAD_CAT_ID   = 26070
ELEMENT_SET_NO = 999
REV_AT_EPOCH   = 34572
BSTAR          = -.38570879E-4
MEAN_MOTION_DOT = -.124E-5
MEAN_MOTION_DDOT = 0

CCSDS_OMM_VERS = 2.0
CREATION_DATE  = 
ORIGINATOR     = 

OBJECT_NAME    = TITAN 4B R/B
OBJECT_ID      = 2000-047B
CENTER_NAME    = EARTH
REF_FRAME      = TEME
TIME_SYSTEM    = UTC
MEAN_ELEMENT_THEORY = SGP/SGP4

EPOCH          = 2026-02-18T03:34:45.568992
MEAN_MOTION    = 15.09384076
ECCENTRICITY   = .0037308
INCLINATION    = 67.9879
RA_OF_ASC_NODE = 95.4517
ARG_OF_PERICENTER = 59.1529
MEAN_ANOMALY   = 301.3281

EPHEMERIS_TYPE = 0
CLASSIFICATION_TYPE = U
NORAD_CAT_ID   = 26474
ELEMENT_SET_NO = 999
REV_AT_EPOCH   = 38996
BSTAR          = .18555E-3
MEAN_MOTION_DOT = .2882E-4
MEAN_MOTION_DDOT = 0

CCSDS_OMM_VERS = 2.0
CREATION_DATE  = 
ORIGINATOR     = 

OBJECT_NAME    = ENVISAT
OBJECT_ID      = 2002-009A
CENTER_NAME    = EARTH
REF_FRAME      = TEME
TIME_SYSTEM    = UTC
MEAN_ELEMENT_THEORY = SGP/SGP4

EPOCH          = 2026-02-17T20:35:42.737856
MEAN_MOTION    = 14.39029113
ECCENTRICITY   = .00013665
INCLINATION    = 98.3696
RA_OF_ASC_NODE = 2.9320
ARG_OF_PERICENTER = 87.0149
MEAN_ANOMALY   = 298.0355

EPHEMERIS_TYPE = 0
CLASSIFICATION_TYPE = U
NORAD_CAT_ID   = 27386
ELEMENT_SET_NO = 999
REV_AT_EPOCH   = 25632
BSTAR          = .47555184E-4
MEAN_MOTION_DOT = .104E-5
MEAN_MOTION_DDOT = 0

