SL-16 R/B               
1 25400U 98043G   26048.73500806  .00000056  00000+0  42454-4 0  9997
2 25400  98.8221   1.9612 0010948  73.8652 286.3732 14.26044834436140
SL-16 R/B               
1 25407U 98045B   26048.72528615  .00000254  00000+0  15234-3 0  9998
2 25407  71.0091 223.5570 0005768  43.4635 316.6942 14.16189616424276
ISS (ZARYA)             
1 25544U 98067A   26048.82815417  .00009688  00000+0  18560-3 0  9999
2 25544  51.6322 170.5300 0010977 108.9064 251.3115 15.48671179553256
CZ-4B R/B               
1 25732U 99025C   26049.11608405  .00000047  00000+0  43425-4 0  9992
2 25732  98.6667  93.8575 0037782  42.6131 340.6425 14.18261343385399
OKEAN-O                 
1 25860U 99039A   26049.11725773  .00000662  00000+0  93712-4 0  9994
2 25860  97.9486 109.2036 0001759  79.6953 280.4457 14.80302276431492
SL-16 R/B               
1 25861U 99039B   26049.11560355  .00000543  00000+0  75686-4 0  9996
2 25861  98.0010 108.2371 0013928 325.4729  34.5577 14.81702805433961
DELTA 2 R/B             
1 25876U 99041E   26049.11515002  .00001745  00000+0  31831-3 0  9992
2 25876  51.7660  19.4514 0502222 290.6195  64.1572 14.11763678360260
HELIOS 1B               
1 25977U 99064A   26049.14092711  .00001761  00000+0  20015-3 0  9999
2 25977  98.1719 310.8079 0002332 101.0693 259.0784 14.87613225682353
TERRA                   
1 25994U 99068A   26049.12157058  .00000425  00000+0  95720-4 0  9998
2 25994  97.9636 103.2997 0001309 211.2444 176.3837 14.60992596392227
SL-16 R/B               
1 26070U 00006B   26048.66483693 -.00000124  00000+0 -38571-4 0  9992
2 26070  71.0022 139.9429 0017976 218.2763 141.7085 14.15818415345720
TITAN 4B R/B            
1 26474U 00047B   26049.14913853  .00002882  00000+0  18555-3 0  9995
2 26474  67.9879  95.4517 0037308  59.1529 301.3281 15.09384076389960
ENVISAT                 
1 27386U 02009A   26048.85813354  .00000104  00000+0  47555-4 0  9998
2 27386  98.3696   2.9320 0001366  87.0149 298.0355 14.39029113256323
